[{"OBJECT_NAME":"ONEWEB-0382","OBJECT_ID":"2021-090AF","EPOCH":"2025-12-04T23:32:41.124192","MEAN_MOTION":13.20773609,"ECCENTRICITY":0.00018024,"INCLINATION":87.9198,"RA_OF_ASC_NODE":313.1643,"ARG_OF_PERICENTER":94.1531,"MEAN_ANOMALY":265.9809,"EPHEMERIS_TYPE":0,"CLASSIFICATION_TYPE":"U","NORAD_CAT_ID":49308,"ELEMENT_SET_NO":999,"REV_AT_EPOCH":20418,"BSTAR":-0.00011541059,"MEAN_MOTION_DOT":-3.4e-7,"MEAN_MOTION_DDOT":0},{"OBJECT_NAME":"ONEWEB-0383","OBJECT_ID":"2021-090AG","EPOCH":"2025-12-05T05:39:18.635040","MEAN_MOTION":13.14503284,"ECCENTRICITY":0.00018947,"INCLINATION":87.8989,"RA_OF_ASC_NODE":328.3313,"ARG_OF_PERICENTER":92.1204,"MEAN_ANOMALY":268.0143,"EPHEMERIS_TYPE":0,"CLASSIFICATION_TYPE":"U","NORAD_CAT_ID":49309,"ELEMENT_SET_NO":999,"REV_AT_EPOCH":20211,"BSTAR":-0.00046832945,"MEAN_MOTION_DOT":-1.61e-6,"MEAN_MOTION_DDOT":0},{"OBJECT_NAME":"ONEWEB-0384","OBJECT_ID":"2021-090AH","EPOCH":"2025-12-04T23:23:26.431872","MEAN_MOTION":13.20799003,"ECCENTRICITY":0.0001995,"INCLINATION":87.9206,"RA_OF_ASC_NODE":313.2008,"ARG_OF_PERICENTER":100.2849,"MEAN_ANOMALY":259.8509,"EPHEMERIS_TYPE":0,"CLASSIFICATION_TYPE":"U","NORAD_CAT_ID":49310,"ELEMENT_SET_NO":999,"REV_AT_EPOCH":20419,"BSTAR":9.4536e-5,"MEAN_MOTION_DOT":5.1e-7,"MEAN_MOTION_DDOT":0},{"OBJECT_NAME":"ONEWEB-0385","OBJECT_ID":"2021-090AJ","EPOCH":"2025-12-04T23:21:18.679104","MEAN_MOTION":13.20770169,"ECCENTRICITY":0.0001794,"INCLINATION":87.9184,"RA_OF_ASC_NODE":313.1715,"ARG_OF_PERICENTER":90.2738,"MEAN_ANOMALY":269.8601,"EPHEMERIS_TYPE":0,"CLASSIFICATION_TYPE":"U","NORAD_CAT_ID":49311,"ELEMENT_SET_NO":999,"REV_AT_EPOCH":20416,"BSTAR":-0.00054514,"MEAN_MOTION_DOT":-2.09e-6,"MEAN_MOTION_DDOT":0},{"OBJECT_NAME":"ONEWEB-0386","OBJECT_ID":"2021-090AK","EPOCH":"2025-12-05T07:02:40.782912","MEAN_MOTION":13.20769173,"ECCENTRICITY":0.00019094,"INCLINATION":87.92,"RA_OF_ASC_NODE":313.0911,"ARG_OF_PERICENTER":93.3332,"MEAN_ANOMALY":266.802,"EPHEMERIS_TYPE":0,"CLASSIFICATION_TYPE":"U","NORAD_CAT_ID":49312,"ELEMENT_SET_NO":999,"REV_AT_EPOCH":20422,"BSTAR":6.5261974e-5,"MEAN_MOTION_DOT":4.0e-7,"MEAN_MOTION_DDOT":0},{"OBJECT_NAME":"ONEWEB-0387","OBJECT_ID":"2021-090AL","EPOCH":"2025-12-04T23:23:37.586112","MEAN_MOTION":13.2078341,"ECCENTRICITY":0.0001672,"INCLINATION":87.919,"RA_OF_ASC_NODE":313.2008,"ARG_OF_PERICENTER":88.5855,"MEAN_ANOMALY":271.547,"EPHEMERIS_TYPE":0,"CLASSIFICATION_TYPE":"U","NORAD_CAT_ID":49313,"ELEMENT_SET_NO":999,"REV_AT_EPOCH":20418,"BSTAR":-0.0031612,"MEAN_MOTION_DOT":-1.272e-5,"MEAN_MOTION_DDOT":0},{"OBJECT_NAME":"ONEWEB-0388","OBJECT_ID":"2021-090AM","EPOCH":"2025-12-05T07:36:14.995008","MEAN_MOTION":13.19723044,"ECCENTRICITY":0.00017874,"INCLINATION":87.9188,"RA_OF_ASC_NODE":343.5525,"ARG_OF_PERICENTER":94.5561,"MEAN_ANOMALY":265.5776,"EPHEMERIS_TYPE":0,"CLASSIFICATION_TYPE":"U","NORAD_CAT_ID":49314,"ELEMENT_SET_NO":999,"REV_AT_EPOCH":20084,"BSTAR":-0.00022229195,"MEAN_MOTION_DOT":-7.6e-7,"MEAN_MOTION_DDOT":0},{"OBJECT_NAME":"ONEWEB-0389","OBJECT_ID":"2021-132A","EPOCH":"2025-12-05T04:21:47.182176","MEAN_MOTION":13.17648282,"ECCENTRICITY":0.0001654,"INCLINATION":87.9123,"RA_OF_ASC_NODE":44.4489,"ARG_OF_PERICENTER":113.8447,"MEAN_ANOMALY":246.2858,"EPHEMERIS_TYPE":0,"CLASSIFICATION_TYPE":"U","NORAD_CAT_ID":50469,"ELEMENT_SET_NO":999,"REV_AT_EPOCH":19253,"BSTAR":0.00024666981,"MEAN_MOTION_DOT":1.09e-6,"MEAN_MOTION_DDOT":0},{"OBJECT_NAME":"ONEWEB-0390","OBJECT_ID":"2021-132B","EPOCH":"2025-12-05T04:24:13.597344","MEAN_MOTION":13.1764842,"ECCENTRICITY":0.00015127,"INCLINATION":87.9117,"RA_OF_ASC_NODE":44.4512,"ARG_OF_PERICENTER":94.4852,"MEAN_ANOMALY":265.6452,"EPHEMERIS_TYPE":0,"CLASSIFICATION_TYPE":"U","NORAD_CAT_ID":50470,"ELEMENT_SET_NO":999,"REV_AT_EPOCH":19253,"BSTAR":0.00018774868,"MEAN_MOTION_DOT":8.6e-7,"MEAN_MOTION_DDOT":0},{"OBJECT_NAME":"ONEWEB-0391","OBJECT_ID":"2021-132C","EPOCH":"2025-12-05T04:26:39.007680","MEAN_MOTION":13.17649015,"ECCENTRICITY":0.00011601,"INCLINATION":87.9117,"RA_OF_ASC_NODE":44.4606,"ARG_OF_PERICENTER":129.3662,"MEAN_ANOMALY":230.7573,"EPHEMERIS_TYPE":0,"CLASSIFICATION_TYPE":"U","NORAD_CAT_ID":50471,"ELEMENT_SET_NO":999,"REV_AT_EPOCH":19253,"BSTAR":0.00023945803,"MEAN_MOTION_DOT":1.06e-6,"MEAN_MOTION_DDOT":0},{"OBJECT_NAME":"ONEWEB-0392","OBJECT_ID":"2021-132D","EPOCH":"2025-12-05T05:10:23.516544","MEAN_MOTION":13.17648184,"ECCENTRICITY":0.00015429,"INCLINATION":87.9127,"RA_OF_ASC_NODE":44.4058,"ARG_OF_PERICENTER":113.7606,"MEAN_ANOMALY":246.3687,"EPHEMERIS_TYPE":0,"CLASSIFICATION_TYPE":"U","NORAD_CAT_ID":50472,"ELEMENT_SET_NO":999,"REV_AT_EPOCH":19257,"BSTAR":0.00011774444,"MEAN_MOTION_DOT":5.9e-7,"MEAN_MOTION_DDOT":0},{"OBJECT_NAME":"ONEWEB-0393","OBJECT_ID":"2021-132E","EPOCH":"2025-12-05T04:31:42.065184","MEAN_MOTION":13.17647593,"ECCENTRICITY":0.00016171,"INCLINATION":87.9127,"RA_OF_ASC_NODE":44.4334,"ARG_OF_PERICENTER":107.1904,"MEAN_ANOMALY":252.9404,"EPHEMERIS_TYPE":0,"CLASSIFICATION_TYPE":"U","NORAD_CAT_ID":50473,"ELEMENT_SET_NO":999,"REV_AT_EPOCH":19256,"BSTAR":8.024181e-5,"MEAN_MOTION_DOT":4.4e-7,"MEAN_MOTION_DDOT":0},{"OBJECT_NAME":"ONEWEB-0394","OBJECT_ID":"2021-132F","EPOCH":"2025-12-05T03:46:48.642816","MEAN_MOTION":13.18685796,"ECCENTRICITY":0.00017426,"INCLINATION":87.9189,"RA_OF_ASC_NODE":13.9759,"ARG_OF_PERICENTER":101.6758,"MEAN_ANOMALY":258.457,"EPHEMERIS_TYPE":0,"CLASSIFICATION_TYPE":"U","NORAD_CAT_ID":50474,"ELEMENT_SET_NO":999,"REV_AT_EPOCH":19602,"BSTAR":0.00015347868,"MEAN_MOTION_DOT":7.3e-7,"MEAN_MOTION_DDOT":0},{"OBJECT_NAME":"ONEWEB-0395","OBJECT_ID":"2021-132G","EPOCH":"2025-12-05T05:17:44.253312","MEAN_MOTION":13.11417783,"ECCENTRICITY":0.00013934,"INCLINATION":87.8859,"RA_OF_ASC_NODE":59.7024,"ARG_OF_PERICENTER":102.2101,"MEAN_ANOMALY":257.9184,"EPHEMERIS_TYPE":0,"CLASSIFICATION_TYPE":"U","NORAD_CAT_ID":50475,"ELEMENT_SET_NO":999,"REV_AT_EPOCH":19029,"BSTAR":0.001699581,"MEAN_MOTION_DOT":6.15e-6,"MEAN_MOTION_DDOT":0},{"OBJECT_NAME":"ONEWEB-0396","OBJECT_ID":"2021-132H","EPOCH":"2025-12-05T03:37:18.681024","MEAN_MOTION":13.18685063,"ECCENTRICITY":0.00017527,"INCLINATION":87.9189,"RA_OF_ASC_NODE":13.9894,"ARG_OF_PERICENTER":99.444,"MEAN_ANOMALY":260.6891,"EPHEMERIS_TYPE":0,"CLASSIFICATION_TYPE":"U","NORAD_CAT_ID":50476,"ELEMENT_SET_NO":999,"REV_AT_EPOCH":19606,"BSTAR":9.1628353e-5,"MEAN_MOTION_DOT":4.9e-7,"MEAN_MOTION_DDOT":0},{"OBJECT_NAME":"ONEWEB-0397","OBJECT_ID":"2021-132J","EPOCH":"2025-12-05T03:58:41.379744","MEAN_MOTION":13.18686722,"ECCENTRICITY":0.0001879,"INCLINATION":87.9186,"RA_OF_ASC_NODE":13.9869,"ARG_OF_PERICENTER":101.9652,"MEAN_ANOMALY":258.1691,"EPHEMERIS_TYPE":0,"CLASSIFICATION_TYPE":"U","NORAD_CAT_ID":50477,"ELEMENT_SET_NO":999,"REV_AT_EPOCH":19604,"BSTAR":0.000156725,"MEAN_MOTION_DOT":7.5e-7,"MEAN_MOTION_DDOT":0},{"OBJECT_NAME":"ONEWEB-0398","OBJECT_ID":"2021-132K","EPOCH":"2025-12-05T04:31:19.802496","MEAN_MOTION":13.11419276,"ECCENTRICITY":0.00013775,"INCLINATION":87.8872,"RA_OF_ASC_NODE":59.681,"ARG_OF_PERICENTER":94.6683,"MEAN_ANOMALY":265.4602,"EPHEMERIS_TYPE":0,"CLASSIFICATION_TYPE":"U","NORAD_CAT_ID":50478,"ELEMENT_SET_NO":999,"REV_AT_EPOCH":19018,"BSTAR":-0.0012116864,"MEAN_MOTION_DOT":-4.17e-6,"MEAN_MOTION_DDOT":0}]
