ONEWEB-0382             
1 49308U 21090AF  25338.98103153 -.00000034  00000+0 -11541-3 0  9990
2 49308  87.9198 313.1643 0001802  94.1531 265.9809 13.20773609204185
ONEWEB-0383             
1 49309U 21090AG  25339.23563235 -.00000161  00000+0 -46833-3 0  9994
2 49309  87.8989 328.3313 0001894  92.1204 268.0143 13.14503284202110
ONEWEB-0384             
1 49310U 21090AH  25338.97461148  .00000051  00000+0  94536-4 0  9996
2 49310  87.9206 313.2008 0001995 100.2849 259.8509 13.20799003204194
ONEWEB-0385             
1 49311U 21090AJ  25338.97313286 -.00000209  00000+0 -54514-3 0  9994
2 49311  87.9184 313.1715 0001794  90.2738 269.8601 13.20770169204169
ONEWEB-0386             
1 49312U 21090AK  25339.29352758  .00000040  00000+0  65262-4 0  9992
2 49312  87.9200 313.0911 0001909  93.3332 266.8020 13.20769173204220
ONEWEB-0387             
1 49313U 21090AL  25338.97474058 -.00001272  00000+0 -31612-2 0  9995
2 49313  87.9190 313.2008 0001672  88.5855 271.5470 13.20783410204188
ONEWEB-0388             
1 49314U 21090AM  25339.31684022 -.00000076  00000+0 -22229-3 0  9995
2 49314  87.9188 343.5525 0001787  94.5561 265.5776 13.19723044200840
ONEWEB-0389             
1 50469U 21132A   25339.18179609  .00000109  00000+0  24667-3 0  9993
2 50469  87.9123  44.4489 0001654 113.8447 246.2858 13.17648282192530
ONEWEB-0390             
1 50470U 21132B   25339.18349071  .00000086  00000+0  18775-3 0  9994
2 50470  87.9117  44.4512 0001512  94.4852 265.6452 13.17648420192538
ONEWEB-0391             
1 50471U 21132C   25339.18517370  .00000106  00000+0  23946-3 0  9993
2 50471  87.9117  44.4606 0001160 129.3662 230.7573 13.17649015192537
ONEWEB-0392             
1 50472U 21132D   25339.21554996  .00000059  00000+0  11774-3 0  9996
2 50472  87.9127  44.4058 0001542 113.7606 246.3687 13.17648184192578
ONEWEB-0393             
1 50473U 21132E   25339.18868131  .00000044  00000+0  80242-4 0  9993
2 50473  87.9127  44.4334 0001617 107.1904 252.9404 13.17647593192569
ONEWEB-0394             
1 50474U 21132F   25339.15750744  .00000073  00000+0  15348-3 0  9997
2 50474  87.9189  13.9759 0001742 101.6758 258.4570 13.18685796196023
ONEWEB-0395             
1 50475U 21132G   25339.22065108  .00000615  00000+0  16996-2 0  9990
2 50475  87.8859  59.7024 0001393 102.2101 257.9184 13.11417783190291
ONEWEB-0396             
1 50476U 21132H   25339.15091066  .00000049  00000+0  91628-4 0  9993
2 50476  87.9189  13.9894 0001752  99.4440 260.6891 13.18685063196060
ONEWEB-0397             
1 50477U 21132J   25339.16575671  .00000075  00000+0  15673-3 0  9998
2 50477  87.9186  13.9869 0001879 101.9652 258.1691 13.18686722196045
ONEWEB-0398             
1 50478U 21132K   25339.18842364 -.00000417  00000+0 -12117-2 0  9998
2 50478  87.8872  59.6810 0001377  94.6683 265.4602 13.11419276190188
